{
  "type": "FeatureCollection",
  "features": [
    {
      "type": "Feature",
      "properties": {
        "norad_id": 30859,
        "name": "FENGYUN 1C DEB",
        "group": "fengyun-1c-debris",
        "lat": -77.16288115800499,
        "lon": 172.28221227136314,
        "alt_km": 751.3051585716685,
        "timestamp": "2025-12-11T18:59:46.352513+00:00",
        "meta_object_name": "FENGYUN 1C DEB",
        "meta_object_id": "1999-025AWV",
        "meta_epoch": "2025-12-10T20:15:07.538400",
        "meta_mean_motion": 14.4900071,
        "meta_eccentricity": 0.0031188,
        "meta_inclination": 98.9213,
        "meta_ra_of_asc_node": 34.8574,
        "meta_arg_of_pericenter": 36.9372,
        "meta_mean_anomaly": 323.3959,
        "meta_ephemeris_type": 0,
        "meta_classification_type": "U",
        "meta_norad_cat_id": 30859,
        "meta_element_set_no": 999,
        "meta_rev_at_epoch": 97007,
        "meta_bstar": 0.0041457,
        "meta_mean_motion_dot": 0.00015804,
        "meta_mean_motion_ddot": 0,
        "tle_line1": "1 30859U 99025AWV 25344.84383725  .00015804  00000+0  41457-2 0  9998",
        "tle_line2": "2 30859  98.9213  34.8574 0031188  36.9372 323.3959 14.49000710970074"
      },
      "geometry": {
        "type": "Point",
        "coordinates": [
          172.28221227136314,
          -77.16288115800499
        ]
      }
    },
    {
      "type": "Feature",
      "properties": {
        "norad_id": 30860,
        "name": "FENGYUN 1C DEB",
        "group": "fengyun-1c-debris",
        "lat": -15.864804328391873,
        "lon": -123.31841518685962,
        "alt_km": 782.8907080281906,
        "timestamp": "2025-12-11T18:59:46.352523+00:00",
        "meta_object_name": "FENGYUN 1C DEB",
        "meta_object_id": "1999-025AWW",
        "meta_epoch": "2025-12-09T15:32:29.284224",
        "meta_mean_motion": 14.25459643,
        "meta_eccentricity": 0.00401769,
        "meta_inclination": 98.9044,
        "meta_ra_of_asc_node": 57.0592,
        "meta_arg_of_pericenter": 195.9488,
        "meta_mean_anomaly": 164.0429,
        "meta_ephemeris_type": 0,
        "meta_classification_type": "U",
        "meta_norad_cat_id": 30860,
        "meta_element_set_no": 999,
        "meta_rev_at_epoch": 96472,
        "meta_bstar": 0.0026029481,
        "meta_mean_motion_dot": 6.158e-05,
        "meta_mean_motion_ddot": 0,
        "tle_line1": "1 30860U 99025AWW 25343.64756116  .00006158  00000+0  26029-2 0  9995",
        "tle_line2": "2 30860  98.9044  57.0592 0040176 195.9488 164.0429 14.25459643964720"
      },
      "geometry": {
        "type": "Point",
        "coordinates": [
          -123.31841518685962,
          -15.864804328391873
        ]
      }
    },
    {
      "type": "Feature",
      "properties": {
        "norad_id": 30862,
        "name": "FENGYUN 1C DEB",
        "group": "fengyun-1c-debris",
        "lat": -61.663976360460104,
        "lon": 93.51357566366215,
        "alt_km": 780.4953713167824,
        "timestamp": "2025-12-11T18:59:46.352533+00:00",
        "meta_object_name": "FENGYUN 1C DEB",
        "meta_object_id": "1999-025AWY",
        "meta_epoch": "2025-12-10T05:09:14.227200",
        "meta_mean_motion": 14.42975868,
        "meta_eccentricity": 0.0053186,
        "meta_inclination": 98.9582,
        "meta_ra_of_asc_node": 74.8486,
        "meta_arg_of_pericenter": 170.4557,
        "meta_mean_anomaly": 219.8244,
        "meta_ephemeris_type": 0,
        "meta_classification_type": "U",
        "meta_norad_cat_id": 30862,
        "meta_element_set_no": 999,
        "meta_rev_at_epoch": 96683,
        "meta_bstar": 0.0056924,
        "meta_mean_motion_dot": 0.00019384,
        "meta_mean_motion_ddot": 0,
        "tle_line1": "1 30862U 99025AWY 25344.21474800  .00019384  00000+0  56924-2 0  9990",
        "tle_line2": "2 30862  98.9582  74.8486 0053186 170.4557 219.8244 14.42975868966837"
      },
      "geometry": {
        "type": "Point",
        "coordinates": [
          93.51357566366215,
          -61.663976360460104
        ]
      }
    },
    {
      "type": "Feature",
      "properties": {
        "norad_id": 30863,
        "name": "FENGYUN 1C DEB",
        "group": "fengyun-1c-debris",
        "lat": 12.592681671600138,
        "lon": -0.865154882168011,
        "alt_km": 1388.133191636507,
        "timestamp": "2025-12-11T18:59:46.352543+00:00",
        "meta_object_name": "FENGYUN 1C DEB",
        "meta_object_id": "1999-025AWZ",
        "meta_epoch": "2025-12-10T18:54:41.531616",
        "meta_mean_motion": 12.40502395,
        "meta_eccentricity": 0.08781793,
        "meta_inclination": 99.1169,
        "meta_ra_of_asc_node": 176.3135,
        "meta_arg_of_pericenter": 254.5072,
        "meta_mean_anomaly": 123.1323,
        "meta_ephemeris_type": 0,
        "meta_classification_type": "U",
        "meta_norad_cat_id": 30863,
        "meta_element_set_no": 999,
        "meta_rev_at_epoch": 59716,
        "meta_bstar": 0.0061707796,
        "meta_mean_motion_dot": 3.218e-05,
        "meta_mean_motion_ddot": 0,
        "tle_line1": "1 30863U 99025AWZ 25344.78798069  .00003218  00000+0  61708-2 0  9994",
        "tle_line2": "2 30863  99.1169 176.3135 0878179 254.5072 123.1323 12.40502395597162"
      },
      "geometry": {
        "type": "Point",
        "coordinates": [
          -0.865154882168011,
          12.592681671600138
        ]
      }
    },
    {
      "type": "Feature",
      "properties": {
        "norad_id": 30867,
        "name": "FENGYUN 1C DEB",
        "group": "fengyun-1c-debris",
        "lat": -70.01669096068078,
        "lon": 50.34253573431392,
        "alt_km": 816.7683141674261,
        "timestamp": "2025-12-11T18:59:46.352554+00:00",
        "meta_object_name": "FENGYUN 1C DEB",
        "meta_object_id": "1999-025AXD",
        "meta_epoch": "2025-12-11T05:05:01.025088",
        "meta_mean_motion": 14.27964888,
        "meta_eccentricity": 0.00545362,
        "meta_inclination": 97.8763,
        "meta_ra_of_asc_node": 252.195,
        "meta_arg_of_pericenter": 359.8657,
        "meta_mean_anomaly": 153.9866,
        "meta_ephemeris_type": 0,
        "meta_classification_type": "U",
        "meta_norad_cat_id": 30867,
        "meta_element_set_no": 999,
        "meta_rev_at_epoch": 96515,
        "meta_bstar": 0.0038690296,
        "meta_mean_motion_dot": 9.719e-05,
        "meta_mean_motion_ddot": 0,
        "tle_line1": "1 30867U 99025AXD 25345.21181742  .00009719  00000+0  38690-2 0  9997",
        "tle_line2": "2 30867  97.8763 252.1950 0054536 359.8657 153.9866 14.27964888965157"
      },
      "geometry": {
        "type": "Point",
        "coordinates": [
          50.34253573431392,
          -70.01669096068078
        ]
      }
    },
    {
      "type": "Feature",
      "properties": {
        "norad_id": 30868,
        "name": "FENGYUN 1C DEB",
        "group": "fengyun-1c-debris",
        "lat": 35.559502635170425,
        "lon": 49.86516893725938,
        "alt_km": 821.3500606486277,
        "timestamp": "2025-12-11T18:59:46.352564+00:00",
        "meta_object_name": "FENGYUN 1C DEB",
        "meta_object_id": "1999-025AXE",
        "meta_epoch": "2025-12-10T21:59:23.556768",
        "meta_mean_motion": 14.11118605,
        "meta_eccentricity": 0.0135099,
        "meta_inclination": 98.2635,
        "meta_ra_of_asc_node": 223.0962,
        "meta_arg_of_pericenter": 218.2249,
        "meta_mean_anomaly": 163.3129,
        "meta_ephemeris_type": 0,
        "meta_classification_type": "U",
        "meta_norad_cat_id": 30868,
        "meta_element_set_no": 999,
        "meta_rev_at_epoch": 96685,
        "meta_bstar": 0.00016734,
        "meta_mean_motion_dot": 2.89e-06,
        "meta_mean_motion_ddot": 0,
        "tle_line1": "1 30868U 99025AXE 25344.91624487  .00000289  00000+0  16734-3 0  9991",
        "tle_line2": "2 30868  98.2635 223.0962 0135099 218.2249 163.3129 14.11118605966856"
      },
      "geometry": {
        "type": "Point",
        "coordinates": [
          49.86516893725938,
          35.559502635170425
        ]
      }
    },
    {
      "type": "Feature",
      "properties": {
        "norad_id": 30872,
        "name": "FENGYUN 1C DEB",
        "group": "fengyun-1c-debris",
        "lat": -36.65779297065863,
        "lon": -148.83093108121875,
        "alt_km": 795.7719657605048,
        "timestamp": "2025-12-11T18:59:46.352574+00:00",
        "meta_object_name": "FENGYUN 1C DEB",
        "meta_object_id": "1999-025AXJ",
        "meta_epoch": "2025-12-11T00:11:31.272576",
        "meta_mean_motion": 14.39408826,
        "meta_eccentricity": 0.00408728,
        "meta_inclination": 99.1933,
        "meta_ra_of_asc_node": 37.252,
        "meta_arg_of_pericenter": 33.8781,
        "meta_mean_anomaly": 85.5321,
        "meta_ephemeris_type": 0,
        "meta_classification_type": "U",
        "meta_norad_cat_id": 30872,
        "meta_element_set_no": 999,
        "meta_rev_at_epoch": 97711,
        "meta_bstar": 0.0012450319,
        "meta_mean_motion_dot": 3.865e-05,
        "meta_mean_motion_ddot": 0,
        "tle_line1": "1 30872U 99025AXJ 25345.00800084  .00003865  00000+0  12450-2 0  9999",
        "tle_line2": "2 30872  99.1933  37.2520 0040872  33.8781  85.5321 14.39408826977110"
      },
      "geometry": {
        "type": "Point",
        "coordinates": [
          -148.83093108121875,
          -36.65779297065863
        ]
      }
    }
  ]
}